[{"OBJECT_NAME":"STARLINK-5024","OBJECT_ID":"2022-119R","EPOCH":"2026-03-10T00:00:02.999808","MEAN_MOTION":15.8880885,"ECCENTRICITY":0.00040618,"INCLINATION":53.2003,"RA_OF_ASC_NODE":241.1302,"ARG_OF_PERICENTER":317.3557,"MEAN_ANOMALY":180.8444,"EPHEMERIS_TYPE":0,"CLASSIFICATION_TYPE":"U","NORAD_CAT_ID":53901,"ELEMENT_SET_NO":999,"REV_AT_EPOCH":602,"BSTAR":0.00090312395,"MEAN_MOTION_DOT":0.00268314,"MEAN_MOTION_DDOT":0},{"OBJECT_NAME":"STARLINK-11687 [DTC]","OBJECT_ID":"2025-075H","EPOCH":"2026-03-09T22:00:01.999584","MEAN_MOTION":15.89300755,"ECCENTRICITY":0.00098176,"INCLINATION":42.9909,"RA_OF_ASC_NODE":150.5403,"ARG_OF_PERICENTER":40.708,"MEAN_ANOMALY":15.0039,"EPHEMERIS_TYPE":0,"CLASSIFICATION_TYPE":"U","NORAD_CAT_ID":63555,"ELEMENT_SET_NO":999,"REV_AT_EPOCH":598,"BSTAR":0.00097147688,"MEAN_MOTION_DOT":0.00289999,"MEAN_MOTION_DDOT":3.85854e-5}]
